{
  "type": "FeatureCollection",
  "features": [
    {
      "type": "Feature",
      "properties": {
        "norad_id": 38867,
        "name": "INTELSAT 23 (IS-23)",
        "group": "intelsat",
        "lat": -0.009618119040349747,
        "lon": -178.78502242800337,
        "alt_km": 35780.02122544769,
        "timestamp": "2025-12-02T10:50:46.941241+00:00",
        "meta_object_name": "INTELSAT 23 (IS-23)",
        "meta_object_id": "2012-057A",
        "meta_epoch": "2025-12-02T03:15:36.240768",
        "meta_mean_motion": 1.00270538,
        "meta_eccentricity": 0.0001786,
        "meta_inclination": 0.04,
        "meta_ra_of_asc_node": 123.4434,
        "meta_arg_of_pericenter": 88.7731,
        "meta_mean_anomaly": 214.9328,
        "meta_ephemeris_type": 0,
        "meta_classification_type": "U",
        "meta_norad_cat_id": 38867,
        "meta_element_set_no": 999,
        "meta_rev_at_epoch": 4797,
        "meta_bstar": 0,
        "meta_mean_motion_dot": -2.64e-06,
        "meta_mean_motion_ddot": 0,
        "tle_line1": "1 38867U 12057A   25336.13583612 -.00000264  00000+0  00000+0 0  9996",
        "tle_line2": "2 38867   0.0400 123.4434 0001786  88.7731 214.9328  1.00270538 47977"
      },
      "geometry": {
        "type": "Point",
        "coordinates": [
          -178.78502242800337,
          -0.009618119040349747
        ]
      }
    },
    {
      "type": "Feature",
      "properties": {
        "norad_id": 39360,
        "name": "FM-6",
        "group": "intelsat",
        "lat": -0.000784208983066943,
        "lon": 118.0425598792215,
        "alt_km": 35779.2608602791,
        "timestamp": "2025-12-02T10:50:46.941252+00:00",
        "meta_object_name": "FM-6",
        "meta_object_id": "2013-058A",
        "meta_epoch": "2025-12-02T02:57:32.706144",
        "meta_mean_motion": 1.00270916,
        "meta_eccentricity": 0.0002945,
        "meta_inclination": 0.004,
        "meta_ra_of_asc_node": 106.4225,
        "meta_arg_of_pericenter": 66.6497,
        "meta_mean_anomaly": 186.3941,
        "meta_ephemeris_type": 0,
        "meta_classification_type": "U",
        "meta_norad_cat_id": 39360,
        "meta_element_set_no": 999,
        "meta_rev_at_epoch": 4409,
        "meta_bstar": 0,
        "meta_mean_motion_dot": 4e-08,
        "meta_mean_motion_ddot": 0,
        "tle_line1": "1 39360U 13058A   25336.12329521  .00000004  00000+0  00000+0 0  9994",
        "tle_line2": "2 39360   0.0040 106.4225 0002945  66.6497 186.3941  1.00270916 44090"
      },
      "geometry": {
        "type": "Point",
        "coordinates": [
          118.0425598792215,
          -0.000784208983066943
        ]
      }
    },
    {
      "type": "Feature",
      "properties": {
        "norad_id": 40271,
        "name": "INTELSAT 30 (IS-30)",
        "group": "intelsat",
        "lat": 0.007763990138096455,
        "lon": 139.199728818604,
        "alt_km": 35781.191668435546,
        "timestamp": "2025-12-02T10:50:46.941264+00:00",
        "meta_object_name": "INTELSAT 30 (IS-30)",
        "meta_object_id": "2014-062A",
        "meta_epoch": "2025-12-02T01:21:41.954112",
        "meta_mean_motion": 1.00274289,
        "meta_eccentricity": 0.0001535,
        "meta_inclination": 0.0117,
        "meta_ra_of_asc_node": 354.2124,
        "meta_arg_of_pericenter": 95.5309,
        "meta_mean_anomaly": 266.8075,
        "meta_ephemeris_type": 0,
        "meta_classification_type": "U",
        "meta_norad_cat_id": 40271,
        "meta_element_set_no": 999,
        "meta_rev_at_epoch": 480,
        "meta_bstar": 0,
        "meta_mean_motion_dot": -1.3e-06,
        "meta_mean_motion_ddot": 0,
        "tle_line1": "1 40271U 14062A   25336.05673558 -.00000130  00000+0  00000+0 0  9998",
        "tle_line2": "2 40271   0.0117 354.2124 0001535  95.5309 266.8075  1.00274289  4800"
      },
      "geometry": {
        "type": "Point",
        "coordinates": [
          139.199728818604,
          0.007763990138096455
        ]
      }
    },
    {
      "type": "Feature",
      "properties": {
        "norad_id": 40333,
        "name": "DIRECTV 14",
        "group": "intelsat",
        "lat": 0.0030744069501972655,
        "lon": 135.00879318130364,
        "alt_km": 35783.63437216399,
        "timestamp": "2025-12-02T10:50:46.941275+00:00",
        "meta_object_name": "DIRECTV 14",
        "meta_object_id": "2014-078B",
        "meta_epoch": "2025-12-02T01:19:42.144960",
        "meta_mean_motion": 1.00274468,
        "meta_eccentricity": 4.16e-05,
        "meta_inclination": 0.0199,
        "meta_ra_of_asc_node": 323.8668,
        "meta_arg_of_pericenter": 183.3129,
        "meta_mean_anomaly": 204.6938,
        "meta_ephemeris_type": 0,
        "meta_classification_type": "U",
        "meta_norad_cat_id": 40333,
        "meta_element_set_no": 999,
        "meta_rev_at_epoch": 4006,
        "meta_bstar": 0,
        "meta_mean_motion_dot": -1.05e-06,
        "meta_mean_motion_ddot": 0,
        "tle_line1": "1 40333U 14078B   25336.05534890 -.00000105  00000+0  00000+0 0  9991",
        "tle_line2": "2 40333   0.0199 323.8668 0000416 183.3129 204.6938  1.00274468 40062"
      },
      "geometry": {
        "type": "Point",
        "coordinates": [
          135.00879318130364,
          0.0030744069501972655
        ]
      }
    },
    {
      "type": "Feature",
      "properties": {
        "norad_id": 40663,
        "name": "DIRECTV 15",
        "group": "intelsat",
        "lat": 0.019014910434208884,
        "lon": 131.34801214972575,
        "alt_km": 35786.895141807014,
        "timestamp": "2025-12-02T10:50:46.941287+00:00",
        "meta_object_name": "DIRECTV 15",
        "meta_object_id": "2015-026A",
        "meta_epoch": "2025-12-01T15:02:03.106176",
        "meta_mean_motion": 1.00270344,
        "meta_eccentricity": 2.26e-05,
        "meta_inclination": 0.0414,
        "meta_ra_of_asc_node": 104.2593,
        "meta_arg_of_pericenter": 141.9124,
        "meta_mean_anomaly": 307.2148,
        "meta_ephemeris_type": 0,
        "meta_classification_type": "U",
        "meta_norad_cat_id": 40663,
        "meta_element_set_no": 999,
        "meta_rev_at_epoch": 3848,
        "meta_bstar": 0,
        "meta_mean_motion_dot": -8.1e-07,
        "meta_mean_motion_ddot": 0,
        "tle_line1": "1 40663U 15026A   25335.62642484 -.00000081  00000+0  00000+0 0  9995",
        "tle_line2": "2 40663   0.0414 104.2593 0000226 141.9124 307.2148  1.00270344 38485"
      },
      "geometry": {
        "type": "Point",
        "coordinates": [
          131.34801214972575,
          0.019014910434208884
        ]
      }
    },
    {
      "type": "Feature",
      "properties": {
        "norad_id": 40664,
        "name": "SKY MEXICO-1",
        "group": "intelsat",
        "lat": -0.015050140369558278,
        "lon": 155.4383692374825,
        "alt_km": 35789.87322589769,
        "timestamp": "2025-12-02T10:50:46.941298+00:00",
        "meta_object_name": "SKY MEXICO-1",
        "meta_object_id": "2015-026B",
        "meta_epoch": "2025-12-02T04:54:21.818016",
        "meta_mean_motion": 1.00270937,
        "meta_eccentricity": 0.0002658,
        "meta_inclination": 0.0115,
        "meta_ra_of_asc_node": 310.0076,
        "meta_arg_of_pericenter": 313.8749,
        "meta_mean_anomaly": 162.2655,
        "meta_ephemeris_type": 0,
        "meta_classification_type": "U",
        "meta_norad_cat_id": 40664,
        "meta_element_set_no": 999,
        "meta_rev_at_epoch": 3847,
        "meta_bstar": 0,
        "meta_mean_motion_dot": -2.14e-06,
        "meta_mean_motion_ddot": 0,
        "tle_line1": "1 40664U 15026B   25336.20441919 -.00000214  00000+0  00000+0 0  9999",
        "tle_line2": "2 40664   0.0115 310.0076 0002658 313.8749 162.2655  1.00270937 38470"
      },
      "geometry": {
        "type": "Point",
        "coordinates": [
          155.4383692374825,
          -0.015050140369558278
        ]
      }
    },
    {
      "type": "Feature",
      "properties": {
        "norad_id": 40874,
        "name": "INTELSAT 34 (IS-34)",
        "group": "intelsat",
        "lat": -0.03181014844511093,
        "lon": 178.7275457412456,
        "alt_km": 35782.92781762635,
        "timestamp": "2025-12-02T10:50:46.941310+00:00",
        "meta_object_name": "INTELSAT 34 (IS-34)",
        "meta_object_id": "2015-039A",
        "meta_epoch": "2025-12-01T18:41:08.783232",
        "meta_mean_motion": 1.00270951,
        "meta_eccentricity": 8.49e-05,
        "meta_inclination": 0.0157,
        "meta_ra_of_asc_node": 294.6924,
        "meta_arg_of_pericenter": 230.7347,
        "meta_mean_anomaly": 130.2562,
        "meta_ephemeris_type": 0,
        "meta_classification_type": "U",
        "meta_norad_cat_id": 40874,
        "meta_element_set_no": 999,
        "meta_rev_at_epoch": 3764,
        "meta_bstar": 0,
        "meta_mean_motion_dot": -2.64e-06,
        "meta_mean_motion_ddot": 0,
        "tle_line1": "1 40874U 15039A   25335.77857388 -.00000264  00000+0  00000+0 0  9993",
        "tle_line2": "2 40874   0.0157 294.6924 0000849 230.7347 130.2562  1.00270951 37645"
      },
      "geometry": {
        "type": "Point",
        "coordinates": [
          178.7275457412456,
          -0.03181014844511093
        ]
      }
    }
  ]
}